STARLINK-30813          
1 58213U 23170H   26067.44822676 -.00027426  00000+0 -10147-2 0  9999
2 58213  43.0016 200.8924 0002190 276.2944  83.7658 15.26795732130116
COSMOS 2588             
1 64095U 25109A   26068.81179522  .00009169  00000+0  32611-3 0  9998
2 64095  72.9704  73.5401 0005019 308.6780  51.3966 15.29122656 44425
